start=new Date('2021-11-06T00:00:00.000Z').valueOf();
sats=[{"PERIOD":"91.535","ARG_OF_PERICENTER":"286.0780","MEAN_MOTION":"15.73161247","RA_OF_ASC_NODE":"157.8749","NORAD_CAT_ID":"48024","REV_AT_EPOCH":"367","MEAN_ELEMENT_THEORY":"SGP4","INCLINATION":"53.0406","MEAN_MOTION_DDOT":"0.0000000000000","REF_FRAME":"TEME","MEAN_MOTION_DOT":"-0.00093099","EPHEMERIS_TYPE":"0","ELEMENT_SET_NO":"999","OBJECT_TYPE":"PAYLOAD","TLE_LINE2":"2 48024  53.0406 157.8749 0008445 286.0780  73.3528 15.73161247  3672","EPOCH":"2021-11-06T00:00:00.999648","ECCENTRICITY":"0.00084450","SITE":"AFETR","COUNTRY_CODE":"US","TIME_SYSTEM":"UTC","OBJECT_ID":"2021-024AZ","PERIAPSIS":"344.189","CLASSIFICATION_TYPE":"U","BSTAR":"-0.00066554000000","MEAN_ANOMALY":"73.3528","RCS_SIZE":"LARGE","FILE":"3204412","DECAY_DATE":null,"SEMIMAJOR_AXIS":"6728.006","TLE_LINE1":"1 48024U 21024AZ  21310.00001157 -.00093099  00000-0 -66554-3 0  9999","APOAPSIS":"355.552","GP_ID":"189046923","LAUNCH_DATE":"2021-03-24","CENTER_NAME":"EARTH","OBJECT_NAME":"STARLINK-2302"},{"PERIAPSIS":"348.356","TIME_SYSTEM":"UTC","OBJECT_ID":"2021-024BA","SITE":"AFETR","COUNTRY_CODE":"US","RCS_SIZE":"LARGE","FILE":"3204412","MEAN_ANOMALY":"343.6409","BSTAR":"-0.00166560000000","CLASSIFICATION_TYPE":"U","TLE_LINE1":"1 48025U 21024BA  21310.00001157 -.00226935  00000-0 -16656-2 0  9994","APOAPSIS":"351.957","SEMIMAJOR_AXIS":"6728.292","DECAY_DATE":null,"OBJECT_NAME":"STARLINK-2318","CENTER_NAME":"EARTH","LAUNCH_DATE":"2021-03-24","GP_ID":"189047150","RA_OF_ASC_NODE":"157.8679","MEAN_MOTION":"15.73060834","ARG_OF_PERICENTER":"16.4404","PERIOD":"91.541","INCLINATION":"53.0405","MEAN_ELEMENT_THEORY":"SGP4","REV_AT_EPOCH":"367","NORAD_CAT_ID":"48025","ELEMENT_SET_NO":"999","MEAN_MOTION_DOT":"-0.00226935","EPHEMERIS_TYPE":"0","REF_FRAME":"TEME","MEAN_MOTION_DDOT":"0.0000000000000","ECCENTRICITY":"0.00026760","EPOCH":"2021-11-06T00:00:00.999648","OBJECT_TYPE":"PAYLOAD","TLE_LINE2":"2 48025  53.0405 157.8679 0002676  16.4404 343.6409 15.73060834  3673"},{"TLE_LINE2":"2 48026  53.0297 252.7425 0001367  72.6964 287.4174 15.06415171 35581","OBJECT_TYPE":"PAYLOAD","ECCENTRICITY":"0.00013670","EPOCH":"2021-11-05T13:00:14.545728","REF_FRAME":"TEME","MEAN_MOTION_DDOT":"0.0000000000000","MEAN_MOTION_DOT":"0.00003177","EPHEMERIS_TYPE":"0","ELEMENT_SET_NO":"999","NORAD_CAT_ID":"48026","REV_AT_EPOCH":"3558","INCLINATION":"53.0297","MEAN_ELEMENT_THEORY":"SGP4","ARG_OF_PERICENTER":"72.6964","PERIOD":"95.591","MEAN_MOTION":"15.06415171","RA_OF_ASC_NODE":"252.7425","GP_ID":"189045422","LAUNCH_DATE":"2021-03-24","CENTER_NAME":"EARTH","OBJECT_NAME":"STARLINK-2278","DECAY_DATE":null,"APOAPSIS":"548.114","TLE_LINE1":"1 48026U 21024BB  21309.54183502  .00003177  00000-0  23196-3 0  9994","SEMIMAJOR_AXIS":"6925.302","CLASSIFICATION_TYPE":"U","BSTAR":"0.00023196000000","FILE":"3204412","RCS_SIZE":"LARGE","MEAN_ANOMALY":"287.4174","SITE":"AFETR","COUNTRY_CODE":"US","OBJECT_ID":"2021-024BB","TIME_SYSTEM":"UTC","PERIAPSIS":"546.220"},{"MEAN_ANOMALY":"289.7477","RCS_SIZE":"LARGE","FILE":"3204412","CLASSIFICATION_TYPE":"U","BSTAR":"-0.00000136450000","OBJECT_ID":"2021-024BC","TIME_SYSTEM":"UTC","PERIAPSIS":"546.135","SITE":"AFETR","COUNTRY_CODE":"US","CENTER_NAME":"EARTH","OBJECT_NAME":"STARLINK-2300","GP_ID":"189045664","LAUNCH_DATE":"2021-03-24","SEMIMAJOR_AXIS":"6925.392","TLE_LINE1":"1 48027U 21024BC  21309.76717706 -.00000302  00000-0 -13645-5 0  9997","APOAPSIS":"548.378","DECAY_DATE":null,"MEAN_ELEMENT_THEORY":"SGP4","INCLINATION":"53.0558","NORAD_CAT_ID":"48027","REV_AT_EPOCH":"3596","ARG_OF_PERICENTER":"70.3687","PERIOD":"95.593","MEAN_MOTION":"15.06385938","RA_OF_ASC_NODE":"226.6071","OBJECT_TYPE":"PAYLOAD","TLE_LINE2":"2 48027  53.0558 226.6071 0001619  70.3687 289.7477 15.06385938 35966","EPOCH":"2021-11-05T18:24:44.097984","ECCENTRICITY":"0.00016190","ELEMENT_SET_NO":"999","REF_FRAME":"TEME","MEAN_MOTION_DDOT":"0.0000000000000","EPHEMERIS_TYPE":"0","MEAN_MOTION_DOT":"-0.00000302"},{"ELEMENT_SET_NO":"999","MEAN_MOTION_DOT":"0.00014826","EPHEMERIS_TYPE":"0","REF_FRAME":"TEME","MEAN_MOTION_DDOT":"0.0000000000000","ECCENTRICITY":"0.00026410","EPOCH":"2021-11-06T00:00:00.999648","OBJECT_TYPE":"PAYLOAD","TLE_LINE2":"2 48028  53.0539 180.5552 0002641  67.9409  48.1593 15.06377794  3577","RA_OF_ASC_NODE":"180.5552","MEAN_MOTION":"15.06377794","ARG_OF_PERICENTER":"67.9409","PERIOD":"95.594","INCLINATION":"53.0539","MEAN_ELEMENT_THEORY":"SGP4","REV_AT_EPOCH":"357","NORAD_CAT_ID":"48028","TLE_LINE1":"1 48028U 21024BD  21310.00001157  .00014826  00000-0  10127-2 0  9996","APOAPSIS":"549.111","SEMIMAJOR_AXIS":"6925.417","DECAY_DATE":null,"OBJECT_NAME":"STARLINK-2264","CENTER_NAME":"EARTH","LAUNCH_DATE":"2021-03-24","GP_ID":"189046424","PERIAPSIS":"545.453","TIME_SYSTEM":"UTC","OBJECT_ID":"2021-024BD","SITE":"AFETR","COUNTRY_CODE":"US","FILE":"3204412","RCS_SIZE":"LARGE","MEAN_ANOMALY":"48.1593","BSTAR":"0.00101270000000","CLASSIFICATION_TYPE":"U"},{"MEAN_ANOMALY":"288.5165","FILE":"3204412","RCS_SIZE":"LARGE","CLASSIFICATION_TYPE":"U","BSTAR":"-0.00004246700000","OBJECT_ID":"2021-024BE","TIME_SYSTEM":"UTC","PERIAPSIS":"546.263","SITE":"AFETR","COUNTRY_CODE":"US","CENTER_NAME":"EARTH","OBJECT_NAME":"STARLINK-2299","GP_ID":"189046651","LAUNCH_DATE":"2021-03-24","SEMIMAJOR_AXIS":"6925.361","APOAPSIS":"548.188","TLE_LINE1":"1 48029U 21024BE  21309.93856591 -.00000914  00000-0 -42467-4 0  9996","DECAY_DATE":null,"MEAN_ELEMENT_THEORY":"SGP4","INCLINATION":"53.0556","NORAD_CAT_ID":"48029","REV_AT_EPOCH":"3577","ARG_OF_PERICENTER":"71.5975","PERIOD":"95.592","MEAN_MOTION":"15.06396031","RA_OF_ASC_NODE":"245.8505","OBJECT_TYPE":"PAYLOAD","TLE_LINE2":"2 48029  53.0556 245.8505 0001390  71.5975 288.5165 15.06396031 35776","EPOCH":"2021-11-05T22:31:32.094624","ECCENTRICITY":"0.00013900","ELEMENT_SET_NO":"999","MEAN_MOTION_DDOT":"0.0000000000000","REF_FRAME":"TEME","EPHEMERIS_TYPE":"0","MEAN_MOTION_DOT":"-0.00000914"},{"MEAN_MOTION_DOT":"0.00003130","EPHEMERIS_TYPE":"0","MEAN_MOTION_DDOT":"0.0000000000000","REF_FRAME":"TEME","ELEMENT_SET_NO":"999","EPOCH":"2021-11-05T13:37:25.685760","ECCENTRICITY":"0.00016720","TLE_LINE2":"2 48030  53.0540 252.4934 0001672  73.4479 286.6694 15.06410350 35580","OBJECT_TYPE":"PAYLOAD","MEAN_MOTION":"15.06410350","RA_OF_ASC_NODE":"252.4934","PERIOD":"95.591","ARG_OF_PERICENTER":"73.4479","REV_AT_EPOCH":"3558","NORAD_CAT_ID":"48030","MEAN_ELEMENT_THEORY":"SGP4","INCLINATION":"53.0540","DECAY_DATE":null,"SEMIMAJOR_AXIS":"6925.317","APOAPSIS":"548.340","TLE_LINE1":"1 48030U 21024BF  21309.56765840  .00003130  00000-0  22885-3 0  9995","LAUNCH_DATE":"2021-03-24","GP_ID":"189045922","OBJECT_NAME":"STARLINK-2268","CENTER_NAME":"EARTH","SITE":"AFETR","COUNTRY_CODE":"US","PERIAPSIS":"546.024","OBJECT_ID":"2021-024BF","TIME_SYSTEM":"UTC","BSTAR":"0.00022885000000","CLASSIFICATION_TYPE":"U","MEAN_ANOMALY":"286.6694","RCS_SIZE":"LARGE","FILE":"3204412"},{"SITE":"AFETR","COUNTRY_CODE":"US","PERIAPSIS":"344.585","TIME_SYSTEM":"UTC","OBJECT_ID":"2021-024BG","BSTAR":"-0.00054309000000","CLASSIFICATION_TYPE":"U","RCS_SIZE":"LARGE","FILE":"3204412","MEAN_ANOMALY":"292.9495","DECAY_DATE":null,"TLE_LINE1":"1 48031U 21024BG  21310.00001157 -.00076207  00000-0 -54309-3 0  9994","APOAPSIS":"355.161","SEMIMAJOR_AXIS":"6728.008","LAUNCH_DATE":"2021-03-24","GP_ID":"189046164","OBJECT_NAME":"STARLINK-2267","CENTER_NAME":"EARTH","MEAN_MOTION":"15.73160460","RA_OF_ASC_NODE":"158.1570","PERIOD":"91.535","ARG_OF_PERICENTER":"287.0483","REV_AT_EPOCH":"367","NORAD_CAT_ID":"48031","INCLINATION":"53.0406","MEAN_ELEMENT_THEORY":"SGP4","MEAN_MOTION_DOT":"-0.00076207","EPHEMERIS_TYPE":"0","REF_FRAME":"TEME","MEAN_MOTION_DDOT":"0.0000000000000","ELEMENT_SET_NO":"999","ECCENTRICITY":"0.00078600","EPOCH":"2021-11-06T00:00:00.999648","TLE_LINE2":"2 48031  53.0406 158.1570 0007860 287.0483 292.9495 15.73160460  3675","OBJECT_TYPE":"PAYLOAD"},{"ELEMENT_SET_NO":"999","MEAN_MOTION_DOT":"-0.00128816","EPHEMERIS_TYPE":"0","REF_FRAME":"TEME","MEAN_MOTION_DDOT":"0.0000000000000","EPOCH":"2021-11-06T00:00:00.999648","ECCENTRICITY":"0.00080120","TLE_LINE2":"2 48032  53.0406 158.1530 0008012 287.4003 293.2573 15.73178630  3673","OBJECT_TYPE":"PAYLOAD","RA_OF_ASC_NODE":"158.1530","MEAN_MOTION":"15.73178630","ARG_OF_PERICENTER":"287.4003","PERIOD":"91.534","MEAN_ELEMENT_THEORY":"SGP4","INCLINATION":"53.0406","REV_AT_EPOCH":"367","NORAD_CAT_ID":"48032","SEMIMAJOR_AXIS":"6727.956","TLE_LINE1":"1 48032U 21024BH  21310.00001157 -.00128816  00000-0 -92599-3 0  9992","APOAPSIS":"355.212","DECAY_DATE":null,"OBJECT_NAME":"STARLINK-2297","CENTER_NAME":"EARTH","LAUNCH_DATE":"2021-03-24","GP_ID":"189046924","PERIAPSIS":"344.431","TIME_SYSTEM":"UTC","OBJECT_ID":"2021-024BH","SITE":"AFETR","COUNTRY_CODE":"US","MEAN_ANOMALY":"293.2573","FILE":"3204412","RCS_SIZE":"LARGE","BSTAR":"-0.00092599000000","CLASSIFICATION_TYPE":"U"},{"NORAD_CAT_ID":"48033","REV_AT_EPOCH":"3571","MEAN_ELEMENT_THEORY":"SGP4","INCLINATION":"53.0533","PERIOD":"95.590","ARG_OF_PERICENTER":"73.1651","RA_OF_ASC_NODE":"247.6412","MEAN_MOTION":"15.06436624","TLE_LINE2":"2 48033  53.0533 247.6412 0001552  73.1651 286.9508 15.06436624 35712","OBJECT_TYPE":"PAYLOAD","EPOCH":"2021-11-05T12:56:55.197600","ECCENTRICITY":"0.00015520","MEAN_MOTION_DDOT":"0.0000000000000","REF_FRAME":"TEME","MEAN_MOTION_DOT":"0.00011183","EPHEMERIS_TYPE":"0","ELEMENT_SET_NO":"999","CLASSIFICATION_TYPE":"U","BSTAR":"0.00076771000000","MEAN_ANOMALY":"286.9508","RCS_SIZE":"LARGE","FILE":"3204412","SITE":"AFETR","COUNTRY_CODE":"US","OBJECT_ID":"2021-024BJ","TIME_SYSTEM":"UTC","PERIAPSIS":"546.027","GP_ID":"189047151","LAUNCH_DATE":"2021-03-24","CENTER_NAME":"EARTH","OBJECT_NAME":"STARLINK-2286","DECAY_DATE":null,"SEMIMAJOR_AXIS":"6925.236","TLE_LINE1":"1 48033U 21024BJ  21309.53952775  .00011183  00000-0  76771-3 0  9990","APOAPSIS":"548.176"}];
